[{"OBJECT_NAME":"STARLINK-4494","OBJECT_ID":"2022-101AH","EPOCH":"2026-01-26T23:44:03.514848","MEAN_MOTION":15.0884213,"ECCENTRICITY":0.00014819,"INCLINATION":53.2154,"RA_OF_ASC_NODE":246.046,"ARG_OF_PERICENTER":89.0846,"MEAN_ANOMALY":271.0316,"EPHEMERIS_TYPE":0,"CLASSIFICATION_TYPE":"U","NORAD_CAT_ID":53558,"ELEMENT_SET_NO":999,"REV_AT_EPOCH":19074,"BSTAR":5.8807006e-5,"MEAN_MOTION_DOT":6.48e-6,"MEAN_MOTION_DDOT":0},{"OBJECT_NAME":"STARLINK-4508","OBJECT_ID":"2022-101AJ","EPOCH":"2026-01-26T22:10:42.766176","MEAN_MOTION":15.08837408,"ECCENTRICITY":0.00017874,"INCLINATION":53.2136,"RA_OF_ASC_NODE":251.6124,"ARG_OF_PERICENTER":92.4965,"MEAN_ANOMALY":267.6232,"EPHEMERIS_TYPE":0,"CLASSIFICATION_TYPE":"U","NORAD_CAT_ID":53559,"ELEMENT_SET_NO":999,"REV_AT_EPOCH":19000,"BSTAR":2.54546e-5,"MEAN_MOTION_DOT":1.17e-6,"MEAN_MOTION_DDOT":0},{"OBJECT_NAME":"STARLINK-4564","OBJECT_ID":"2022-101AK","EPOCH":"2026-01-27T07:07:17.332896","MEAN_MOTION":15.08837007,"ECCENTRICITY":0.00014761,"INCLINATION":53.2162,"RA_OF_ASC_NODE":240.1277,"ARG_OF_PERICENTER":85.409,"MEAN_ANOMALY":274.7071,"EPHEMERIS_TYPE":0,"CLASSIFICATION_TYPE":"U","NORAD_CAT_ID":53560,"ELEMENT_SET_NO":999,"REV_AT_EPOCH":19019,"BSTAR":0.00012353542,"MEAN_MOTION_DOT":1.678e-5,"MEAN_MOTION_DDOT":0},{"OBJECT_NAME":"STARLINK-4563","OBJECT_ID":"2022-101AL","EPOCH":"2026-01-26T15:38:33.918144","MEAN_MOTION":15.088363,"ECCENTRICITY":6.91e-5,"INCLINATION":53.2132,"RA_OF_ASC_NODE":252.8334,"ARG_OF_PERICENTER":71.5532,"MEAN_ANOMALY":288.5535,"EPHEMERIS_TYPE":0,"CLASSIFICATION_TYPE":"U","NORAD_CAT_ID":53561,"ELEMENT_SET_NO":999,"REV_AT_EPOCH":18996,"BSTAR":-0.00021287,"MEAN_MOTION_DOT":-3.673e-5,"MEAN_MOTION_DDOT":0},{"OBJECT_NAME":"STARLINK-4565","OBJECT_ID":"2022-101AM","EPOCH":"2026-01-27T00:40:27.242112","MEAN_MOTION":15.08836914,"ECCENTRICITY":0.00010467,"INCLINATION":53.2153,"RA_OF_ASC_NODE":241.2916,"ARG_OF_PERICENTER":76.54,"MEAN_ANOMALY":283.5709,"EPHEMERIS_TYPE":0,"CLASSIFICATION_TYPE":"U","NORAD_CAT_ID":53562,"ELEMENT_SET_NO":999,"REV_AT_EPOCH":19081,"BSTAR":0.00017046943,"MEAN_MOTION_DOT":2.426e-5,"MEAN_MOTION_DDOT":0},{"OBJECT_NAME":"STARLINK-4561","OBJECT_ID":"2022-101AN","EPOCH":"2026-01-27T07:12:35.463744","MEAN_MOTION":15.088429,"ECCENTRICITY":0.00015332,"INCLINATION":53.2159,"RA_OF_ASC_NODE":240.1492,"ARG_OF_PERICENTER":88.6449,"MEAN_ANOMALY":271.4719,"EPHEMERIS_TYPE":0,"CLASSIFICATION_TYPE":"U","NORAD_CAT_ID":53563,"ELEMENT_SET_NO":999,"REV_AT_EPOCH":19019,"BSTAR":0.00012855942,"MEAN_MOTION_DOT":1.759e-5,"MEAN_MOTION_DDOT":0},{"OBJECT_NAME":"STARLINK-4577","OBJECT_ID":"2022-101AP","EPOCH":"2026-01-26T22:54:26.224416","MEAN_MOTION":15.08836464,"ECCENTRICITY":8.422e-5,"INCLINATION":53.2169,"RA_OF_ASC_NODE":241.5431,"ARG_OF_PERICENTER":76.5605,"MEAN_ANOMALY":283.5481,"EPHEMERIS_TYPE":0,"CLASSIFICATION_TYPE":"U","NORAD_CAT_ID":53564,"ELEMENT_SET_NO":999,"REV_AT_EPOCH":19014,"BSTAR":1.8161757e-5,"MEAN_MOTION_DOT":1.0e-8,"MEAN_MOTION_DDOT":0},{"OBJECT_NAME":"STARLINK-4575","OBJECT_ID":"2022-101AQ","EPOCH":"2026-01-27T00:41:48.999840","MEAN_MOTION":15.08840092,"ECCENTRICITY":0.0001492,"INCLINATION":53.2147,"RA_OF_ASC_NODE":241.2975,"ARG_OF_PERICENTER":86.6868,"MEAN_ANOMALY":273.4295,"EPHEMERIS_TYPE":0,"CLASSIFICATION_TYPE":"U","NORAD_CAT_ID":53565,"ELEMENT_SET_NO":999,"REV_AT_EPOCH":19081,"BSTAR":2.74029e-7,"MEAN_MOTION_DOT":-2.84e-6,"MEAN_MOTION_DDOT":0},{"OBJECT_NAME":"STARLINK-4576","OBJECT_ID":"2022-101AR","EPOCH":"2026-01-26T14:46:53.746176","MEAN_MOTION":15.08837172,"ECCENTRICITY":9.486e-5,"INCLINATION":53.2164,"RA_OF_ASC_NODE":242.9852,"ARG_OF_PERICENTER":82.1515,"MEAN_ANOMALY":277.9584,"EPHEMERIS_TYPE":0,"CLASSIFICATION_TYPE":"U","NORAD_CAT_ID":53566,"ELEMENT_SET_NO":999,"REV_AT_EPOCH":19078,"BSTAR":4.9006766e-5,"MEAN_MOTION_DOT":4.92e-6,"MEAN_MOTION_DDOT":0},{"OBJECT_NAME":"STARLINK-4585","OBJECT_ID":"2022-101AS","EPOCH":"2026-01-26T22:59:44.407968","MEAN_MOTION":15.08846098,"ECCENTRICITY":0.00012899,"INCLINATION":53.2156,"RA_OF_ASC_NODE":241.5675,"ARG_OF_PERICENTER":60.1706,"MEAN_ANOMALY":299.9415,"EPHEMERIS_TYPE":0,"CLASSIFICATION_TYPE":"U","NORAD_CAT_ID":53567,"ELEMENT_SET_NO":999,"REV_AT_EPOCH":19014,"BSTAR":0.00031613406,"MEAN_MOTION_DOT":4.748e-5,"MEAN_MOTION_DDOT":0},{"OBJECT_NAME":"STARLINK-4583","OBJECT_ID":"2022-101AT","EPOCH":"2026-01-27T00:03:17.465472","MEAN_MOTION":15.08842994,"ECCENTRICITY":0.00013809,"INCLINATION":53.2156,"RA_OF_ASC_NODE":241.1359,"ARG_OF_PERICENTER":84.4794,"MEAN_ANOMALY":275.6355,"EPHEMERIS_TYPE":0,"CLASSIFICATION_TYPE":"U","NORAD_CAT_ID":53568,"ELEMENT_SET_NO":999,"REV_AT_EPOCH":19084,"BSTAR":9.2569693e-5,"MEAN_MOTION_DOT":1.186e-5,"MEAN_MOTION_DDOT":0},{"OBJECT_NAME":"STARLINK-4582","OBJECT_ID":"2022-101AU","EPOCH":"2026-01-26T14:52:12.124992","MEAN_MOTION":15.08842606,"ECCENTRICITY":0.0001887,"INCLINATION":53.2146,"RA_OF_ASC_NODE":243.0102,"ARG_OF_PERICENTER":88.6852,"MEAN_ANOMALY":271.4356,"EPHEMERIS_TYPE":0,"CLASSIFICATION_TYPE":"U","NORAD_CAT_ID":53569,"ELEMENT_SET_NO":999,"REV_AT_EPOCH":19076,"BSTAR":0.00019077,"MEAN_MOTION_DOT":2.749e-5,"MEAN_MOTION_DDOT":0},{"OBJECT_NAME":"STARLINK-4550","OBJECT_ID":"2022-101AV","EPOCH":"2026-01-27T00:08:35.593728","MEAN_MOTION":15.08847344,"ECCENTRICITY":0.00011942,"INCLINATION":53.2131,"RA_OF_ASC_NODE":241.1553,"ARG_OF_PERICENTER":108.1412,"MEAN_ANOMALY":251.971,"EPHEMERIS_TYPE":0,"CLASSIFICATION_TYPE":"U","NORAD_CAT_ID":53570,"ELEMENT_SET_NO":999,"REV_AT_EPOCH":19084,"BSTAR":0.00026268853,"MEAN_MOTION_DOT":3.896e-5,"MEAN_MOTION_DDOT":0},{"OBJECT_NAME":"STARLINK-4584","OBJECT_ID":"2022-101AW","EPOCH":"2026-01-27T06:35:26.852640","MEAN_MOTION":15.0884135,"ECCENTRICITY":0.00012011,"INCLINATION":53.2179,"RA_OF_ASC_NODE":239.9886,"ARG_OF_PERICENTER":94.8244,"MEAN_ANOMALY":265.2885,"EPHEMERIS_TYPE":0,"CLASSIFICATION_TYPE":"U","NORAD_CAT_ID":53571,"ELEMENT_SET_NO":999,"REV_AT_EPOCH":19088,"BSTAR":3.6615027e-5,"MEAN_MOTION_DOT":2.95e-6,"MEAN_MOTION_DDOT":0},{"OBJECT_NAME":"STARLINK-4555","OBJECT_ID":"2022-101AX","EPOCH":"2026-01-26T14:04:26.773536","MEAN_MOTION":15.088456,"ECCENTRICITY":0.0001123,"INCLINATION":53.2152,"RA_OF_ASC_NODE":242.8063,"ARG_OF_PERICENTER":92.8785,"MEAN_ANOMALY":267.2336,"EPHEMERIS_TYPE":0,"CLASSIFICATION_TYPE":"U","NORAD_CAT_ID":53572,"ELEMENT_SET_NO":999,"REV_AT_EPOCH":19009,"BSTAR":1.5528e-5,"MEAN_MOTION_DOT":-4.1e-7,"MEAN_MOTION_DDOT":0},{"OBJECT_NAME":"STARLINK-4559","OBJECT_ID":"2022-101AZ","EPOCH":"2026-01-26T23:42:04.225824","MEAN_MOTION":15.08847973,"ECCENTRICITY":0.00012757,"INCLINATION":53.2156,"RA_OF_ASC_NODE":241.0432,"ARG_OF_PERICENTER":87.3815,"MEAN_ANOMALY":272.7324,"EPHEMERIS_TYPE":0,"CLASSIFICATION_TYPE":"U","NORAD_CAT_ID":53574,"ELEMENT_SET_NO":999,"REV_AT_EPOCH":19015,"BSTAR":0.00038261452,"MEAN_MOTION_DOT":5.808e-5,"MEAN_MOTION_DDOT":0},{"OBJECT_NAME":"STARLINK-4551","OBJECT_ID":"2022-101BA","EPOCH":"2026-01-26T23:52:41.119104","MEAN_MOTION":15.08848639,"ECCENTRICITY":0.00013621,"INCLINATION":53.2161,"RA_OF_ASC_NODE":241.0869,"ARG_OF_PERICENTER":103.6958,"MEAN_ANOMALY":256.4186,"EPHEMERIS_TYPE":0,"CLASSIFICATION_TYPE":"U","NORAD_CAT_ID":53575,"ELEMENT_SET_NO":999,"REV_AT_EPOCH":19084,"BSTAR":2.2434471e-5,"MEAN_MOTION_DOT":6.9e-7,"MEAN_MOTION_DDOT":0},{"OBJECT_NAME":"STARLINK-4581","OBJECT_ID":"2022-101BB","EPOCH":"2026-01-26T22:18:40.291200","MEAN_MOTION":15.08844943,"ECCENTRICITY":0.0001671,"INCLINATION":53.2152,"RA_OF_ASC_NODE":241.3893,"ARG_OF_PERICENTER":102.4385,"MEAN_ANOMALY":257.6794,"EPHEMERIS_TYPE":0,"CLASSIFICATION_TYPE":"U","NORAD_CAT_ID":53576,"ELEMENT_SET_NO":999,"REV_AT_EPOCH":19096,"BSTAR":0.00012001921,"MEAN_MOTION_DOT":1.623e-5,"MEAN_MOTION_DDOT":0},{"OBJECT_NAME":"STARLINK-4553","OBJECT_ID":"2022-101BC","EPOCH":"2026-01-26T23:47:22.441344","MEAN_MOTION":15.08847309,"ECCENTRICITY":0.00016144,"INCLINATION":53.2147,"RA_OF_ASC_NODE":241.0653,"ARG_OF_PERICENTER":80.3473,"MEAN_ANOMALY":279.7702,"EPHEMERIS_TYPE":0,"CLASSIFICATION_TYPE":"U","NORAD_CAT_ID":53577,"ELEMENT_SET_NO":999,"REV_AT_EPOCH":19097,"BSTAR":0.00014074796,"MEAN_MOTION_DOT":1.953e-5,"MEAN_MOTION_DDOT":0},{"OBJECT_NAME":"STARLINK-4556","OBJECT_ID":"2022-101BD","EPOCH":"2026-01-26T23:31:27.717024","MEAN_MOTION":15.08845535,"ECCENTRICITY":0.00014013,"INCLINATION":53.2147,"RA_OF_ASC_NODE":240.9972,"ARG_OF_PERICENTER":91.3497,"MEAN_ANOMALY":268.7656,"EPHEMERIS_TYPE":0,"CLASSIFICATION_TYPE":"U","NORAD_CAT_ID":53578,"ELEMENT_SET_NO":999,"REV_AT_EPOCH":19015,"BSTAR":0.00044658907,"MEAN_MOTION_DOT":6.828e-5,"MEAN_MOTION_DDOT":0},{"OBJECT_NAME":"STARLINK-4580","OBJECT_ID":"2022-101BE","EPOCH":"2026-01-26T21:50:44.218464","MEAN_MOTION":15.08862553,"ECCENTRICITY":0.00012914,"INCLINATION":53.2152,"RA_OF_ASC_NODE":241.2711,"ARG_OF_PERICENTER":94.1002,"MEAN_ANOMALY":266.0138,"EPHEMERIS_TYPE":0,"CLASSIFICATION_TYPE":"U","NORAD_CAT_ID":53579,"ELEMENT_SET_NO":999,"REV_AT_EPOCH":19014,"BSTAR":0.00023229617,"MEAN_MOTION_DOT":3.413e-5,"MEAN_MOTION_DDOT":0},{"OBJECT_NAME":"STARLINK-4691","OBJECT_ID":"2022-104A","EPOCH":"2026-01-27T07:19:13.203552","MEAN_MOTION":15.08840636,"ECCENTRICITY":0.00016031,"INCLINATION":53.2178,"RA_OF_ASC_NODE":70.152,"ARG_OF_PERICENTER":85.0851,"MEAN_ANOMALY":275.0324,"EPHEMERIS_TYPE":0,"CLASSIFICATION_TYPE":"U","NORAD_CAT_ID":53588,"ELEMENT_SET_NO":999,"REV_AT_EPOCH":18984,"BSTAR":7.5314377e-5,"MEAN_MOTION_DOT":9.11e-6,"MEAN_MOTION_DDOT":0},{"OBJECT_NAME":"STARLINK-4673","OBJECT_ID":"2022-104B","EPOCH":"2026-01-27T06:52:41.559168","MEAN_MOTION":15.0883379,"ECCENTRICITY":0.00016099,"INCLINATION":53.219,"RA_OF_ASC_NODE":70.0396,"ARG_OF_PERICENTER":100.5168,"MEAN_ANOMALY":259.6006,"EPHEMERIS_TYPE":0,"CLASSIFICATION_TYPE":"U","NORAD_CAT_ID":53589,"ELEMENT_SET_NO":999,"REV_AT_EPOCH":18969,"BSTAR":6.2827001e-5,"MEAN_MOTION_DOT":7.12e-6,"MEAN_MOTION_DDOT":0}]
